start=new Date('2022-03-16T00:00:00.000Z').valueOf();
sats=[{"INCLINATION":"53.0539","TIME_SYSTEM":"UTC","OBJECT_TYPE":"PAYLOAD","CLASSIFICATION_TYPE":"U","REV_AT_EPOCH":"10575","NORAD_CAT_ID":"45550","REF_FRAME":"TEME","GP_ID":"198845829","MEAN_MOTION":"15.06418372","ECCENTRICITY":"0.00014390","RCS_SIZE":"LARGE","LAUNCH_DATE":"2020-04-22","BSTAR":"0.00094913000000","PERIAPSIS":"546.161","MEAN_ELEMENT_THEORY":"SGP4","EPOCH":"2022-03-15T12:19:33.578976","COUNTRY_CODE":"US","MEAN_MOTION_DDOT":"0.0000000000000","SEMIMAJOR_AXIS":"6925.292","DECAY_DATE":null,"ARG_OF_PERICENTER":"72.8637","RA_OF_ASC_NODE":"159.1683","MEAN_ANOMALY":"287.2510","TLE_LINE1":"1 45550U 20025V   22074.51358309  .00013891  00000-0  94913-3 0  9998","ELEMENT_SET_NO":"999","FILE":"3360930","EPHEMERIS_TYPE":"0","OBJECT_NAME":"STARLINK-1390","SITE":"AFETR","TLE_LINE2":"2 45550  53.0539 159.1683 0001439  72.8637 287.2510 15.06418372105759","PERIOD":"95.591","MEAN_MOTION_DOT":"0.00013891","APOAPSIS":"548.154","CENTER_NAME":"EARTH","OBJECT_ID":"2020-025V"},{"MEAN_MOTION_DDOT":"0.0000000000000","COUNTRY_CODE":"US","MEAN_ELEMENT_THEORY":"SGP4","PERIAPSIS":"545.923","EPOCH":"2022-03-15T15:34:39.236736","LAUNCH_DATE":"2020-04-22","BSTAR":"-0.00054234000000","REF_FRAME":"TEME","GP_ID":"198845579","MEAN_MOTION":"15.06387872","ECCENTRICITY":"0.00019170","RCS_SIZE":"LARGE","NORAD_CAT_ID":"45551","REV_AT_EPOCH":"10606","CLASSIFICATION_TYPE":"U","TIME_SYSTEM":"UTC","OBJECT_TYPE":"PAYLOAD","INCLINATION":"53.0522","OBJECT_ID":"2020-025W","CENTER_NAME":"EARTH","APOAPSIS":"548.578","MEAN_MOTION_DOT":"-0.00008348","SITE":"AFETR","TLE_LINE2":"2 45551  53.0522 138.5466 0001917  61.7355 298.3827 15.06387872106066","PERIOD":"95.593","ELEMENT_SET_NO":"999","OBJECT_NAME":"STARLINK-1294","FILE":"3360930","EPHEMERIS_TYPE":"0","TLE_LINE1":"1 45551U 20025W   22074.64906524 -.00008348  00000-0 -54234-3 0  9996","MEAN_ANOMALY":"298.3827","RA_OF_ASC_NODE":"138.5466","ARG_OF_PERICENTER":"61.7355","DECAY_DATE":null,"SEMIMAJOR_AXIS":"6925.386"},{"DECAY_DATE":null,"SEMIMAJOR_AXIS":"6817.673","MEAN_ANOMALY":"335.3259","RA_OF_ASC_NODE":"98.5521","ARG_OF_PERICENTER":"24.7870","SITE":"AFETR","TLE_LINE2":"2 45552  53.0535  98.5521 0002589  24.7870 335.3259 15.42227740106636","PERIOD":"93.371","ELEMENT_SET_NO":"999","FILE":"3360930","OBJECT_NAME":"STARLINK-1322","EPHEMERIS_TYPE":"0","TLE_LINE1":"1 45552U 20025X   22074.77696284  .00006109  00000-0  14939-3 0  9999","OBJECT_ID":"2020-025X","CENTER_NAME":"EARTH","APOAPSIS":"441.303","MEAN_MOTION_DOT":"0.00006109","TIME_SYSTEM":"UTC","OBJECT_TYPE":"PAYLOAD","INCLINATION":"53.0535","CLASSIFICATION_TYPE":"U","LAUNCH_DATE":"2020-04-22","BSTAR":"0.00014939000000","MEAN_MOTION":"15.42227740","GP_ID":"198844330","REF_FRAME":"TEME","RCS_SIZE":"LARGE","ECCENTRICITY":"0.00025890","NORAD_CAT_ID":"45552","REV_AT_EPOCH":"10663","MEAN_MOTION_DDOT":"0.0000000000000","COUNTRY_CODE":"US","PERIAPSIS":"437.773","MEAN_ELEMENT_THEORY":"SGP4","EPOCH":"2022-03-15T18:38:49.589376"},{"CLASSIFICATION_TYPE":"U","OBJECT_TYPE":"PAYLOAD","TIME_SYSTEM":"UTC","INCLINATION":"53.0524","MEAN_MOTION_DDOT":"0.0000000000000","COUNTRY_CODE":"US","EPOCH":"2022-03-15T20:37:12.659520","PERIAPSIS":"546.461","MEAN_ELEMENT_THEORY":"SGP4","BSTAR":"-0.00123910000000","LAUNCH_DATE":"2020-04-22","RCS_SIZE":"LARGE","ECCENTRICITY":"0.00012160","MEAN_MOTION":"15.06370933","GP_ID":"198844580","REF_FRAME":"TEME","NORAD_CAT_ID":"45553","REV_AT_EPOCH":"10480","MEAN_ANOMALY":"307.7057","RA_OF_ASC_NODE":"137.6113","ARG_OF_PERICENTER":"52.4042","DECAY_DATE":null,"SEMIMAJOR_AXIS":"6925.438","OBJECT_ID":"2020-025Y","CENTER_NAME":"EARTH","APOAPSIS":"548.145","MEAN_MOTION_DOT":"-0.00018675","TLE_LINE2":"2 45553  53.0524 137.6113 0001216  52.4042 307.7057 15.06370933104801","PERIOD":"95.594","SITE":"AFETR","FILE":"3360930","OBJECT_NAME":"STARLINK-1323","EPHEMERIS_TYPE":"0","ELEMENT_SET_NO":"999","TLE_LINE1":"1 45553U 20025Y   22074.85917430 -.00018675  00000-0 -12391-2 0  9990"},{"OBJECT_ID":"2020-025Z","CENTER_NAME":"EARTH","APOAPSIS":"548.279","MEAN_MOTION_DOT":"0.00010084","SITE":"AFETR","PERIOD":"95.591","TLE_LINE2":"2 45554  53.0525 139.1237 0001608  61.7451 298.3700 15.06415808106048","ELEMENT_SET_NO":"999","FILE":"3360930","OBJECT_NAME":"STARLINK-1325","EPHEMERIS_TYPE":"0","TLE_LINE1":"1 45554U 20025Z   22074.52006263  .00010084  00000-0  69459-3 0  9990","MEAN_ANOMALY":"298.3700","RA_OF_ASC_NODE":"139.1237","ARG_OF_PERICENTER":"61.7451","DECAY_DATE":null,"SEMIMAJOR_AXIS":"6925.300","MEAN_MOTION_DDOT":"0.0000000000000","COUNTRY_CODE":"US","PERIAPSIS":"546.052","MEAN_ELEMENT_THEORY":"SGP4","EPOCH":"2022-03-15T12:28:53.411232","LAUNCH_DATE":"2020-04-22","BSTAR":"0.00069459000000","GP_ID":"198845330","MEAN_MOTION":"15.06415808","REF_FRAME":"TEME","ECCENTRICITY":"0.00016080","RCS_SIZE":"LARGE","NORAD_CAT_ID":"45554","REV_AT_EPOCH":"10604","CLASSIFICATION_TYPE":"U","TIME_SYSTEM":"UTC","OBJECT_TYPE":"PAYLOAD","INCLINATION":"53.0525"},{"SITE":"AFETR","TLE_LINE2":"2 45555  53.0530 138.9906 0001341  59.9059 300.2063 15.06399654106047","PERIOD":"95.592","ELEMENT_SET_NO":"999","FILE":"3360930","EPHEMERIS_TYPE":"0","OBJECT_NAME":"STARLINK-1327","TLE_LINE1":"1 45555U 20025AA  22074.54954045  .00001879  00000-0  14501-3 0  9993","OBJECT_ID":"2020-025AA","CENTER_NAME":"EARTH","APOAPSIS":"548.143","MEAN_MOTION_DOT":"0.00001879","DECAY_DATE":null,"SEMIMAJOR_AXIS":"6925.350","MEAN_ANOMALY":"300.2063","RA_OF_ASC_NODE":"138.9906","ARG_OF_PERICENTER":"59.9059","LAUNCH_DATE":"2020-04-22","BSTAR":"0.00014501000000","REF_FRAME":"TEME","GP_ID":"198846079","MEAN_MOTION":"15.06399654","ECCENTRICITY":"0.00013410","RCS_SIZE":"LARGE","NORAD_CAT_ID":"45555","REV_AT_EPOCH":"10604","MEAN_MOTION_DDOT":"0.0000000000000","COUNTRY_CODE":"US","MEAN_ELEMENT_THEORY":"SGP4","PERIAPSIS":"546.286","EPOCH":"2022-03-15T13:11:20.294880","TIME_SYSTEM":"UTC","OBJECT_TYPE":"PAYLOAD","INCLINATION":"53.0530","CLASSIFICATION_TYPE":"U"},{"OBJECT_ID":"2020-025AB","CENTER_NAME":"EARTH","APOAPSIS":"548.408","MEAN_MOTION_DOT":"-0.00001449","SITE":"AFETR","PERIOD":"95.592","TLE_LINE2":"2 45556  53.0537 138.5271 0001725  57.3299 302.7857 15.06400008106066","ELEMENT_SET_NO":"999","OBJECT_NAME":"STARLINK-1334","FILE":"3360930","EPHEMERIS_TYPE":"0","TLE_LINE1":"1 45556U 20025AB  22074.65643258 -.00001449  00000-0 -78355-4 0  9990","MEAN_ANOMALY":"302.7857","RA_OF_ASC_NODE":"138.5271","ARG_OF_PERICENTER":"57.3299","DECAY_DATE":null,"SEMIMAJOR_AXIS":"6925.349","MEAN_MOTION_DDOT":"0.0000000000000","COUNTRY_CODE":"US","PERIAPSIS":"546.019","MEAN_ELEMENT_THEORY":"SGP4","EPOCH":"2022-03-15T15:45:15.774912","LAUNCH_DATE":"2020-04-22","BSTAR":"-0.00007835500000","GP_ID":"198844830","REF_FRAME":"TEME","MEAN_MOTION":"15.06400008","RCS_SIZE":"LARGE","ECCENTRICITY":"0.00017250","NORAD_CAT_ID":"45556","REV_AT_EPOCH":"10606","CLASSIFICATION_TYPE":"U","TIME_SYSTEM":"UTC","OBJECT_TYPE":"PAYLOAD","INCLINATION":"53.0537"},{"TLE_LINE1":"1 45557U 20025AC  22074.86285829  .00002507  00000-0  18716-3 0  9998","PERIOD":"95.592","TLE_LINE2":"2 45557  53.0544 137.5836 0001446  71.4847 288.6299 15.06396314106096","SITE":"AFETR","EPHEMERIS_TYPE":"0","FILE":"3360930","OBJECT_NAME":"STARLINK-1336","ELEMENT_SET_NO":"999","APOAPSIS":"548.226","MEAN_MOTION_DOT":"0.00002507","OBJECT_ID":"2020-025AC","CENTER_NAME":"EARTH","SEMIMAJOR_AXIS":"6925.360","DECAY_DATE":null,"ARG_OF_PERICENTER":"71.4847","MEAN_ANOMALY":"288.6299","RA_OF_ASC_NODE":"137.5836","NORAD_CAT_ID":"45557","REV_AT_EPOCH":"10609","BSTAR":"0.00018716000000","LAUNCH_DATE":"2020-04-22","ECCENTRICITY":"0.00014460","RCS_SIZE":"LARGE","MEAN_MOTION":"15.06396314","GP_ID":"198845080","REF_FRAME":"TEME","EPOCH":"2022-03-15T20:42:30.956256","PERIAPSIS":"546.223","MEAN_ELEMENT_THEORY":"SGP4","MEAN_MOTION_DDOT":"0.0000000000000","COUNTRY_CODE":"US","OBJECT_TYPE":"PAYLOAD","TIME_SYSTEM":"UTC","INCLINATION":"53.0544","CLASSIFICATION_TYPE":"U"},{"DECAY_DATE":null,"SEMIMAJOR_AXIS":"6925.347","RA_OF_ASC_NODE":"139.2352","MEAN_ANOMALY":"276.5418","ARG_OF_PERICENTER":"83.5723","ELEMENT_SET_NO":"999","OBJECT_NAME":"STARLINK-1342","FILE":"3360930","EPHEMERIS_TYPE":"0","SITE":"AFETR","TLE_LINE2":"2 45558  53.0543 139.2352 0001332  83.5723 276.5418 15.06400404106038","PERIOD":"95.592","TLE_LINE1":"1 45558U 20025AD  22074.49793963  .00003624  00000-0  26206-3 0  9995","CENTER_NAME":"EARTH","OBJECT_ID":"2020-025AD","MEAN_MOTION_DOT":"0.00003624","APOAPSIS":"548.135","INCLINATION":"53.0543","TIME_SYSTEM":"UTC","OBJECT_TYPE":"PAYLOAD","CLASSIFICATION_TYPE":"U","GP_ID":"198845830","MEAN_MOTION":"15.06400404","REF_FRAME":"TEME","RCS_SIZE":"LARGE","ECCENTRICITY":"0.00013320","LAUNCH_DATE":"2020-04-22","BSTAR":"0.00026206000000","REV_AT_EPOCH":"10603","NORAD_CAT_ID":"45558","COUNTRY_CODE":"US","MEAN_MOTION_DDOT":"0.0000000000000","MEAN_ELEMENT_THEORY":"SGP4","PERIAPSIS":"546.290","EPOCH":"2022-03-15T11:57:01.984032"},{"REV_AT_EPOCH":"10609","NORAD_CAT_ID":"45559","GP_ID":"198845580","MEAN_MOTION":"15.06396796","REF_FRAME":"TEME","RCS_SIZE":"LARGE","ECCENTRICITY":"0.00014780","LAUNCH_DATE":"2020-04-22","BSTAR":"0.00007638100000","PERIAPSIS":"546.200","MEAN_ELEMENT_THEORY":"SGP4","EPOCH":"2022-03-15T20:47:49.313472","COUNTRY_CODE":"US","MEAN_MOTION_DDOT":"0.0000000000000","INCLINATION":"53.0537","TIME_SYSTEM":"UTC","OBJECT_TYPE":"PAYLOAD","CLASSIFICATION_TYPE":"U","TLE_LINE1":"1 45559U 20025AE  22074.86654298  .00000856  00000-0  76381-4 0  9998","ELEMENT_SET_NO":"999","EPHEMERIS_TYPE":"0","FILE":"3360930","OBJECT_NAME":"STARLINK-1344","SITE":"AFETR","PERIOD":"95.592","TLE_LINE2":"2 45559  53.0537 137.5649 0001478  56.3713 303.7417 15.06396796106096","MEAN_MOTION_DOT":"0.00000856","APOAPSIS":"548.247","CENTER_NAME":"EARTH","OBJECT_ID":"2020-025AE","SEMIMAJOR_AXIS":"6925.358","DECAY_DATE":null,"ARG_OF_PERICENTER":"56.3713","RA_OF_ASC_NODE":"137.5649","MEAN_ANOMALY":"303.7417"}];
